{
  "norad_id": 58957,
  "name": "RAPTOR1",
  "history": [
    {
      "epoch": "2026-03-28T15:02:02.172192",
      "apogee_km": 1006.9873648170887,
      "perigee_km": 989.8457296839879,
      "latitude_deg": 2.7829494598973588,
      "longitude_deg": 135.83574688015506,
      "semi_major_axis_km": 7376.553547250538,
      "eccentricity": 0.0011619,
      "inclination_deg": 39.9911,
      "raan_deg": 54.0691,
      "arg_perigee_deg": 151.5807,
      "mean_anomaly_deg": 208.5575,
      "mean_motion_rev_day": 13.7032163
    },
    {
      "epoch": "2026-03-29T05:01:43.565664",
      "apogee_km": 1007.023215310981,
      "perigee_km": 989.8092906398379,
      "latitude_deg": -6.550334921481655,
      "longitude_deg": -168.18492704001255,
      "semi_major_axis_km": 7376.553252975409,
      "eccentricity": 0.0011668,
      "inclination_deg": 39.9912,
      "raan_deg": 51.3907,
      "arg_perigee_deg": 155.0481,
      "mean_anomaly_deg": 205.0831,
      "mean_motion_rev_day": 13.70321712
    }
  ]
}